[{"OBJECT_NAME":"STARLINK-5414","OBJECT_ID":"2022-175BD","EPOCH":"2026-03-09T05:04:24.496896","MEAN_MOTION":15.08838937,"ECCENTRICITY":0.00014074,"INCLINATION":53.2181,"RA_OF_ASC_NODE":30.8194,"ARG_OF_PERICENTER":99.2201,"MEAN_ANOMALY":260.895,"EPHEMERIS_TYPE":0,"CLASSIFICATION_TYPE":"U","NORAD_CAT_ID":54809,"ELEMENT_SET_NO":999,"REV_AT_EPOCH":18006,"BSTAR":9.1962618e-5,"MEAN_MOTION_DOT":1.176e-5,"MEAN_MOTION_DDOT":0},{"OBJECT_NAME":"OBJECT A","OBJECT_ID":"2024-128A","EPOCH":"2026-03-09T23:23:08.128896","MEAN_MOTION":15.00647164,"ECCENTRICITY":0.00604583,"INCLINATION":61.9933,"RA_OF_ASC_NODE":216.2149,"ARG_OF_PERICENTER":112.7248,"MEAN_ANOMALY":248.0248,"EPHEMERIS_TYPE":0,"CLASSIFICATION_TYPE":"U","NORAD_CAT_ID":60235,"ELEMENT_SET_NO":999,"REV_AT_EPOCH":9111,"BSTAR":0.00034041236,"MEAN_MOTION_DOT":4.284e-5,"MEAN_MOTION_DDOT":0}]
